{"fetched_at":"2026-03-30T06:02:59Z","count":15439,"tles":[{"name":"STARLINK-31840","line1":"1 60127U 24118Q   26087.87790397 -.00000851  00000+0 -16617-4 0  9995","line2":"2 60127  53.1612 297.6321 0001081  92.7931 267.3193 15.30195879 98632","category":"Starlink"}]}